CUTE-1 (CO-55)          
1 27844U 03031E   26204.00389230  .00000238  00000+0  12202-3 0  9993
2 27844  98.6747 212.1136 0010851  82.6312 277.6100 14.24355144196777
CUBESAT XI-IV (CO-57)   
1 27848U 03031J   26204.01036090  .00000205  00000+0  10894-3 0  9990
2 27848  98.6778 211.8037 0010712  99.0689 261.1702 14.23637690196477
CUBESAT XI-V            
1 28895U 05043F   26202.37477685  .00000932  00000+0  15414-3 0  9994
2 28895  98.3024 358.7230 0015344  97.2573 263.0378 14.72712744106788
CUTE-1.7+APD II (CO-65) 
1 32785U 08021C   26204.10818674  .00005733  00000+0  35922-3 0  9996
2 32785  97.8296 186.2868 0006968 265.7589  94.2843 15.09750992990610
CANX-2                  
1 32790U 08021H   26204.17335308  .00003699  00000+0  25920-3 0  9993
2 32790  97.8656 184.6611 0008684 285.1873  74.8392 15.05839367990223
SEEDS II (CO-66)        
1 32791U 08021J   26203.44081651  .00019519  00000+0  59788-3 0  9999
2 32791  97.7536 203.0544 0003832 141.9870 218.1643 15.33845449992691
SWISSCUBE               
1 35932U 09051B   26204.15543684  .00000831  00000+0  17352-3 0  9999
2 35932  98.3998 112.6657 0008109  98.0034 262.2087 14.62541744894411
BEESAT-1                
1 35933U 09051C   26203.84145627  .00000667  00000+0  14346-3 0  9997
2 35933  98.3927 111.9069 0006451 110.1032 250.0863 14.61770632894398
ITUPSAT1                
1 35935U 09051E   26203.72659903  .00000550  00000+0  12334-3 0  9999
2 35935  98.4011 110.9439 0008488 122.2889 237.9135 14.60486457893923
TISAT 1                 
1 36799U 10035E   26204.29318227  .00021823  00000+0  68647-3 0  9990
2 36799  98.0704 154.0856 0004850 104.9298 255.2479 15.32974639873239
STRAND-1                
1 39090U 13009E   26204.05022801  .00000241  00000+0  95167-4 0  9994
2 39090  98.3941  23.4053 0009729 120.1275 240.0877 14.37182344702216
BRITE-AUSTRIA           
1 39091U 13009F   26204.00903347  .00000146  00000+0  64070-4 0  9996
2 39091  98.4015  22.5617 0011149 129.2260 230.9918 14.36554832702194
NEE-01 PEGASO           
1 39151U 13018B   26203.83564981  .00002090  00000+0  20251-3 0  9992
2 39151  98.1267 349.1763 0013460  51.2724 308.9696 14.93816948716022
POPACS 2                
1 39269U 13055E   26204.13078707  .00024522 -85499-6  40209-3 0  9995
2 39269  80.9907 103.0284 0413984  78.4234 286.3140 14.92284774668573
POPACS 3                
1 39270U 13055F   26202.94855447  .00010270  00000+0  24503-3 0  9999
2 39270  81.0010 191.4730 0547878 324.0661  32.4808 14.56772916643612
ZACUBE-1 (TSHEPISOSAT)  
1 39417U 13066B   26201.86646474  .00001847  00000+0  14537-3 0  9998
2 39417  97.7999 164.3670 0044079 137.0238 223.4444 15.01347026685787
WNISAT-1                
1 39423U 13066H   26204.03322788  .00000966  00000+0  18262-3 0  9996
2 39423  97.7245 350.6532 0164216 118.7989 242.9814 14.58132929671956
TRITON-1                
1 39427U 13066M   26204.28859670  .00001764  00000+0  21444-3 0  9995
2 39427  97.8207 113.2691 0091130 116.0763 244.9865 14.81816807679432
GOMX-1                  
1 39430U 13066Q   26204.27375828  .00000867  00000+0  13686-3 0  9998
2 39430  97.6471  42.4595 0127558 322.1717  37.0576 14.69554635675212
CUBEBUG-2 (LO-74)       
1 39440U 13066AA  26204.29932029  .00002525  00000+0  23554-3 0  9991
2 39440  97.8916 153.4406 0055479 267.8104  91.6762 14.94006519682380
NEE-02 KRYSAOR          
1 39441U 13066AB  26204.28413993  .00001814  00000+0  20262-3 0  9998
2 39441  97.8897 143.2466 0064744 312.4198  47.1551 14.86763677681564
FUNCUBE-1 (AO-73)       
1 39444U 13066AE  26204.17915288  .00007622  00000+0  46639-3 0  9992
2 39444  97.8300 176.3916 0038134  81.8391 278.7160 15.09903824685095
UWE-3                   
1 39446U 13066AG  26204.30668996  .00003059  00000+0  26352-3 0  9990
2 39446  97.8729 160.6343 0047856 196.8794 163.0837 14.97241976682988
BRITE-CA1 (TORONTO)     
1 40020U 14033L   26204.31970262  .00000998  00000+0  15678-3 0  9996
2 40020  97.9779 332.5905 0079071 160.3248 200.1041 14.72735524647534
DUCHIFAT-1              
1 40021U 14033M   26203.61891863  .00168289  00000+0  12291-2 0  9993
2 40021  98.0416 267.9836 0003730 228.0656 132.0288 15.72730714661307
NANOSATC-BR1            
1 40024U 14033Q   26204.19384921  .00018251  00000+0  58294-3 0  9999
2 40024  98.0711 239.7999 0004941  77.8706 282.3087 15.32526557659493
QB50P1                  
1 40025U 14033R   26203.79923947  .00008602  00000+0  41700-3 0  9995
2 40025  98.0975 217.4558 0010565 102.9257 257.3156 15.18749882658434
QB50P2                  
1 40032U 14033Y   26203.75700805  .00007182  00000+0  38192-3 0  9998
2 40032  98.0772 202.8656 0009013  62.7755 297.4394 15.15578446658056
PERSEUS-M2              
1 40037U 14033AD  26204.32607117  .00000963  00000+0  92190-4 0  9998
2 40037  97.9973 155.6082 0011698 173.4988 186.6386 14.95598550656187
PERSEUS-M1              
1 40039U 14033AF  26204.29607795  .00000896  00000+0  85813-4 0  9997
2 40039  97.9652 149.0258 0011571 170.3172 189.8274 14.95731721656030
